CCSDS_OMM_VERS = 2.0
CREATION_DATE  = 
ORIGINATOR     = 

OBJECT_NAME    = 2026-027E
OBJECT_ID      = 2026-027E
CENTER_NAME    = EARTH
REF_FRAME      = TEME
TIME_SYSTEM    = UTC
MEAN_ELEMENT_THEORY = SGP/SGP4

EPOCH          = 2026-02-17T06:15:17.220672
MEAN_MOTION    = 15.17702068
ECCENTRICITY   = .00087428
INCLINATION    = 97.4890
RA_OF_ASC_NODE = 177.5033
ARG_OF_PERICENTER = 283.2770
MEAN_ANOMALY   = 76.7489

EPHEMERIS_TYPE = 0
CLASSIFICATION_TYPE = U
NORAD_CAT_ID   = 67750
ELEMENT_SET_NO = 999
REV_AT_EPOCH   = 76
BSTAR          = .4586998E-3
MEAN_MOTION_DOT = .9192E-4
MEAN_MOTION_DDOT = 0

CCSDS_OMM_VERS = 2.0
CREATION_DATE  = 
ORIGINATOR     = 

OBJECT_NAME    = 2026-027F
OBJECT_ID      = 2026-027F
CENTER_NAME    = EARTH
REF_FRAME      = TEME
TIME_SYSTEM    = UTC
MEAN_ELEMENT_THEORY = SGP/SGP4

EPOCH          = 2026-02-17T06:15:02.669184
MEAN_MOTION    = 15.17782666
ECCENTRICITY   = .00098477
INCLINATION    = 97.4891
RA_OF_ASC_NODE = 177.5037
ARG_OF_PERICENTER = 281.7535
MEAN_ANOMALY   = 78.2593

EPHEMERIS_TYPE = 0
CLASSIFICATION_TYPE = U
NORAD_CAT_ID   = 67751
ELEMENT_SET_NO = 999
REV_AT_EPOCH   = 76
BSTAR          = .76007311E-3
MEAN_MOTION_DOT = .15329E-3
MEAN_MOTION_DDOT = 0

CCSDS_OMM_VERS = 2.0
CREATION_DATE  = 
ORIGINATOR     = 

OBJECT_NAME    = 2026-027G
OBJECT_ID      = 2026-027G
CENTER_NAME    = EARTH
REF_FRAME      = TEME
TIME_SYSTEM    = UTC
MEAN_ELEMENT_THEORY = SGP/SGP4

EPOCH          = 2026-02-17T06:14:53.763072
MEAN_MOTION    = 15.17787616
ECCENTRICITY   = .00090539
INCLINATION    = 97.4885
RA_OF_ASC_NODE = 177.5032
ARG_OF_PERICENTER = 285.1057
MEAN_ANOMALY   = 74.9175

EPHEMERIS_TYPE = 0
CLASSIFICATION_TYPE = U
NORAD_CAT_ID   = 67752
ELEMENT_SET_NO = 999
REV_AT_EPOCH   = 76
BSTAR          = .47756803E-3
MEAN_MOTION_DOT = .9598E-4
MEAN_MOTION_DDOT = 0

CCSDS_OMM_VERS = 2.0
CREATION_DATE  = 
ORIGINATOR     = 

OBJECT_NAME    = 2026-027H
OBJECT_ID      = 2026-027H
CENTER_NAME    = EARTH
REF_FRAME      = TEME
TIME_SYSTEM    = UTC
MEAN_ELEMENT_THEORY = SGP/SGP4

EPOCH          = 2026-02-17T06:17:37.555008
MEAN_MOTION    = 15.59147108
ECCENTRICITY   = .02698616
INCLINATION    = 97.5138
RA_OF_ASC_NODE = 177.8526
ARG_OF_PERICENTER = 321.1242
MEAN_ANOMALY   = 37.0871

EPHEMERIS_TYPE = 0
CLASSIFICATION_TYPE = U
NORAD_CAT_ID   = 67753
ELEMENT_SET_NO = 999
REV_AT_EPOCH   = 78
BSTAR          = .73232097E-3
MEAN_MOTION_DOT = .381798E-2
MEAN_MOTION_DDOT = .2300997E-5

CCSDS_OMM_VERS = 2.0
CREATION_DATE  = 
ORIGINATOR     = 

OBJECT_NAME    = 2026-027J
OBJECT_ID      = 2026-027J
CENTER_NAME    = EARTH
REF_FRAME      = TEME
TIME_SYSTEM    = UTC
MEAN_ELEMENT_THEORY = SGP/SGP4

EPOCH          = 2026-02-17T06:08:16.506240
MEAN_MOTION    = 15.63330533
ECCENTRICITY   = .02537672
INCLINATION    = 97.5115
RA_OF_ASC_NODE = 177.8627
ARG_OF_PERICENTER = 320.7238
MEAN_ANOMALY   = 37.5845

EPHEMERIS_TYPE = 0
CLASSIFICATION_TYPE = U
NORAD_CAT_ID   = 67754
ELEMENT_SET_NO = 999
REV_AT_EPOCH   = 72
BSTAR          = .15019843E-2
MEAN_MOTION_DOT = .83065E-2
MEAN_MOTION_DDOT = .2339977E-5

CCSDS_OMM_VERS = 2.0
CREATION_DATE  = 
ORIGINATOR     = 

OBJECT_NAME    = 2026-028A
OBJECT_ID      = 2026-028A
CENTER_NAME    = EARTH
REF_FRAME      = TEME
TIME_SYSTEM    = UTC
MEAN_ELEMENT_THEORY = SGP/SGP4

EPOCH          = 2026-02-16T06:58:42.571200
MEAN_MOTION    = 1.01589916
ECCENTRICITY   = .00018254
INCLINATION    = 0.5268
RA_OF_ASC_NODE = 287.9889
ARG_OF_PERICENTER = 248.5746
MEAN_ANOMALY   = 183.4121

EPHEMERIS_TYPE = 0
CLASSIFICATION_TYPE = U
NORAD_CAT_ID   = 67756
ELEMENT_SET_NO = 999
REV_AT_EPOCH   = 4
BSTAR          = 0
MEAN_MOTION_DOT = -.244E-5
MEAN_MOTION_DDOT = 0

CCSDS_OMM_VERS = 2.0
CREATION_DATE  = 
ORIGINATOR     = 

OBJECT_NAME    = CREW DRAGON 12
OBJECT_ID      = 2026-031A
CENTER_NAME    = EARTH
REF_FRAME      = TEME
TIME_SYSTEM    = UTC
MEAN_ELEMENT_THEORY = SGP/SGP4

EPOCH          = 2026-02-17T04:23:19.361472
MEAN_MOTION    = 15.48657976
ECCENTRICITY   = .00110184
INCLINATION    = 51.6319
RA_OF_ASC_NODE = 173.7204
ARG_OF_PERICENTER = 107.0393
MEAN_ANOMALY   = 253.1803

EPHEMERIS_TYPE = 0
CLASSIFICATION_TYPE = U
NORAD_CAT_ID   = 67796
ELEMENT_SET_NO = 999
REV_AT_EPOCH   = 57
BSTAR          = .18517944E-3
MEAN_MOTION_DOT = .966E-4
MEAN_MOTION_DDOT = 0

