2026-027E               
1 67750U 26027E   26048.26061598  .00009192  00000+0  45870-3 0  9996
2 67750  97.4890 177.5033 0008742 283.2770  76.7489 15.17702068   761
2026-027F               
1 67751U 26027F   26048.26044756  .00015329  00000+0  76007-3 0  9999
2 67751  97.4891 177.5037 0009847 281.7535  78.2593 15.17782666   761
2026-027G               
1 67752U 26027G   26048.26034448  .00009598  00000+0  47757-3 0  9998
2 67752  97.4885 177.5032 0009053 285.1057  74.9175 15.17787616   765
2026-027H               
1 67753U 26027H   26048.26224022  .00381798  23010-5  73232-3 0  9992
2 67753  97.5138 177.8526 0269861 321.1242  37.0871 15.59147108   788
2026-027J               
1 67754U 26027J   26048.25574660  .00830650  23400-5  15020-2 0  9997
2 67754  97.5115 177.8627 0253767 320.7238  37.5845 15.63330533   725
2026-028A               
1 67756U 26028A   26047.29077050 -.00000244  00000+0  00000+0 0  9997
2 67756   0.5268 287.9889 0001825 248.5746 183.4121  1.01589916    41
CREW DRAGON 12          
1 67796U 26031A   26048.18286298  .00009660  00000+0  18518-3 0  9997
2 67796  51.6319 173.7204 0011018 107.0393 253.1803 15.48657976   572
